OBJECT_NAME,OBJECT_ID,EPOCH,MEAN_MOTION,ECCENTRICITY,INCLINATION,RA_OF_ASC_NODE,ARG_OF_PERICENTER,MEAN_ANOMALY,EPHEMERIS_TYPE,CLASSIFICATION_TYPE,NORAD_CAT_ID,ELEMENT_SET_NO,REV_AT_EPOCH,BSTAR,MEAN_MOTION_DOT,MEAN_MOTION_DDOT
IRIDIUM 156,2018-061H,2026-06-17T01:08:38.501376,14.34217188,.0002062,86.3961,56.7878,82.4394,277.7036,0,U,43576,999,41335,.71587E-4,.22E-5,0
IRIDIUM 164,2018-061J,2026-06-17T02:21:42.410592,14.34216895,.0002161,86.3960,56.8068,88.8772,271.2672,0,U,43577,999,41340,.48058E-4,.154E-5,0
IRIDIUM 159,2018-061K,2026-06-17T01:36:02.528352,14.34217601,.0002279,86.3960,56.7570,83.9314,276.2141,0,U,43578,999,41336,.13311E-4,.57E-6,0
IRIDIUM 180,2019-002A,2026-06-16T23:54:50.865120,14.34217124,.0002245,86.3970,353.6772,89.1478,270.9975,0,U,43922,999,38896,.59066E-4,.185E-5,0
IRIDIUM 176,2019-002B,2026-06-17T00:33:07.219008,14.72266920,.0002285,86.6091,353.6097,92.7263,267.4216,0,U,43923,999,39922,.95936E-4,.63E-5,0
IRIDIUM 168,2019-002C,2026-06-17T01:26:10.754016,14.34218610,.0002191,86.3974,353.7281,89.4977,270.6469,0,U,43924,999,38895,.18147E-4,.71E-6,0
IRIDIUM 173,2019-002D,2026-06-17T01:07:54.878016,14.34216760,.000217,86.3968,353.6224,86.7765,273.3679,0,U,43925,999,38893,.42412E-4,.139E-5,0
IRIDIUM 169,2019-002E,2026-06-17T01:02:45.026880,14.38608985,.0001856,86.4224,25.2534,72.7754,287.3647,0,U,43926,999,39020,.69545E-4,.233E-5,0
IRIDIUM 172,2019-002F,2026-06-17T00:58:46.784928,14.34218498,.0002256,86.3969,353.6329,88.8503,271.2951,0,U,43927,999,38894,.45643E-4,.148E-5,0
IRIDIUM 175,2019-002G,2026-06-17T01:37:46.478784,14.43612609,.0002483,86.4512,290.5708,179.1771,180.9435,0,U,43928,999,39896,.72219E-4,.265E-5,0
IRIDIUM 171,2019-002H,2026-06-17T00:31:22.893600,14.34217465,.0002037,86.3979,353.9469,90.7718,269.3711,0,U,43929,999,38893,-.28863E-4,-.61E-6,0
IRIDIUM 170,2019-002J,2026-06-17T00:42:01.215936,14.72267432,.0002359,86.6091,353.6095,89.2769,270.8718,0,U,43930,999,39923,.96331E-4,.632E-5,0
IRIDIUM 167,2019-002K,2026-06-17T00:22:14.853216,14.34217611,.0001767,86.3967,353.6659,91.6720,268.4679,0,U,43931,999,38893,-.27268E-5,.12E-6,0
IRIDIUM 181,2023-068S,2026-06-16T23:13:37.394688,14.43312292,.0002354,86.4499,56.8823,88.4443,271.7028,0,U,56726,999,16240,.71943E-4,.262E-5,0
IRIDIUM 177,2023-068T,2026-06-17T04:29:49.280352,14.80224916,.000234,86.1962,328.7913,88.2331,271.9158,0,U,56727,999,16636,.11254E-3,.882E-5,0
IRIDIUM 174,2023-068U,2026-06-17T00:24:15.299136,14.72263778,.0002462,86.6098,353.7621,84.1065,276.0432,0,U,56728,999,16599,.99189E-4,.65E-5,0
IRIDIUM 178,2023-068V,2026-06-17T00:59:28.637088,14.80233609,.0002634,86.6537,25.4212,85.8802,274.2721,0,U,56729,999,16634,.10149E-3,.797E-5,0
IRIDIUM 179,2023-068W,2026-06-17T02:29:02.923584,14.80231047,.0002465,86.6777,34.3753,88.7134,271.4370,0,U,56730,999,16635,.89586E-4,.707E-5,0
