IRIDIUM 156             
1 43576U 18061H   26168.04766784  .00000220  00000+0  71587-4 0  9991
2 43576  86.3961  56.7878 0002062  82.4394 277.7036 14.34217188413358
IRIDIUM 164             
1 43577U 18061J   26168.09840753  .00000154  00000+0  48058-4 0  9999
2 43577  86.3960  56.8068 0002161  88.8772 271.2672 14.34216895413405
IRIDIUM 159             
1 43578U 18061K   26168.06669593  .00000057  00000+0  13311-4 0  9994
2 43578  86.3960  56.7570 0002279  83.9314 276.2141 14.34217601413368
IRIDIUM 180             
1 43922U 19002A   26167.99642205  .00000185  00000+0  59066-4 0  9994
2 43922  86.3970 353.6772 0002245  89.1478 270.9975 14.34217124388960
IRIDIUM 176             
1 43923U 19002B   26168.02300022  .00000630  00000+0  95936-4 0  9999
2 43923  86.6091 353.6097 0002285  92.7263 267.4216 14.72266920399224
IRIDIUM 168             
1 43924U 19002C   26168.05984669  .00000071  00000+0  18147-4 0  9996
2 43924  86.3974 353.7281 0002191  89.4977 270.6469 14.34218610388954
IRIDIUM 173             
1 43925U 19002D   26168.04716294  .00000139  00000+0  42412-4 0  9990
2 43925  86.3968 353.6224 0002170  86.7765 273.3679 14.34216760388931
IRIDIUM 169             
1 43926U 19002E   26168.04357670  .00000233  00000+0  69545-4 0  9991
2 43926  86.4224  25.2534 0001856  72.7754 287.3647 14.38608985390208
IRIDIUM 172             
1 43927U 19002F   26168.04081927  .00000148  00000+0  45643-4 0  9999
2 43927  86.3969 353.6329 0002256  88.8503 271.2951 14.34218498388949
IRIDIUM 175             
1 43928U 19002G   26168.06789906  .00000265  00000+0  72219-4 0  9993
2 43928  86.4512 290.5708 0002483 179.1771 180.9435 14.43612609398966
IRIDIUM 171             
1 43929U 19002H   26168.02179275 -.00000061  00000+0 -28863-4 0  9994
2 43929  86.3979 353.9469 0002037  90.7718 269.3711 14.34217465388931
IRIDIUM 170             
1 43930U 19002J   26168.02918074  .00000632  00000+0  96331-4 0  9991
2 43930  86.6091 353.6095 0002359  89.2769 270.8718 14.72267432399239
IRIDIUM 167             
1 43931U 19002K   26168.01544969  .00000012  00000+0 -27268-5 0  9996
2 43931  86.3967 353.6659 0001767  91.6720 268.4679 14.34217611388937
IRIDIUM 181             
1 56726U 23068S   26167.96779392  .00000262  00000+0  71943-4 0  9996
2 56726  86.4499  56.8823 0002354  88.4443 271.7028 14.43312292162406
IRIDIUM 177             
1 56727U 23068T   26168.18737593  .00000882  00000+0  11254-3 0  9995
2 56727  86.1962 328.7913 0002340  88.2331 271.9158 14.80224916166360
IRIDIUM 174             
1 56728U 23068U   26168.01684374  .00000650  00000+0  99189-4 0  9993
2 56728  86.6098 353.7621 0002462  84.1065 276.0432 14.72263778165993
IRIDIUM 178             
1 56729U 23068V   26168.04130367  .00000797  00000+0  10149-3 0  9995
2 56729  86.6537  25.4212 0002634  85.8802 274.2721 14.80233609166349
IRIDIUM 179             
1 56730U 23068W   26168.10350606  .00000707  00000+0  89586-4 0  9997
2 56730  86.6777  34.3753 0002465  88.7134 271.4370 14.80231047166352
